[{"OBJECT_NAME":"YAOGAN-36 02B","OBJECT_ID":"2022-133B","EPOCH":"2026-03-09T22:42:31.775904","MEAN_MOTION":15.30199518,"ECCENTRICITY":0.00056841,"INCLINATION":34.9983,"RA_OF_ASC_NODE":22.5268,"ARG_OF_PERICENTER":273.0351,"MEAN_ANOMALY":86.9715,"EPHEMERIS_TYPE":0,"CLASSIFICATION_TYPE":"U","NORAD_CAT_ID":54043,"ELEMENT_SET_NO":999,"REV_AT_EPOCH":18962,"BSTAR":0.00051218814,"MEAN_MOTION_DOT":0.00015352,"MEAN_MOTION_DDOT":0},{"OBJECT_NAME":"STARLINK-32160","OBJECT_ID":"2024-131G","EPOCH":"2026-03-09T08:33:02.040768","MEAN_MOTION":15.30196385,"ECCENTRICITY":0.00013205,"INCLINATION":53.1607,"RA_OF_ASC_NODE":54.2509,"ARG_OF_PERICENTER":84.745,"MEAN_ANOMALY":275.3702,"EPHEMERIS_TYPE":0,"CLASSIFICATION_TYPE":"U","NORAD_CAT_ID":60261,"ELEMENT_SET_NO":999,"REV_AT_EPOCH":9171,"BSTAR":-9.5980647e-5,"MEAN_MOTION_DOT":-3.2e-5,"MEAN_MOTION_DDOT":0}]
